41589,EUTELSAT 117 WEST B,2016,1436.08,5500.0,+,0.0,Active,1,GSO,USA,EUTELSAT,Commercial,Communications,Falcon,1 41589U 16038B   24020.29806125 -.00000007  00000+0  00000+0 0  9992,2 41589   0.0070 126.1706 0000218 261.4959  81.7948  1.00272075 27859,1.00272075,2.18e-05,GEO
41591,BRISAT,2016,1436.12,3540.0,+,0.01,Active,1,GSO,French Guiana,Indonesia,Commercial,Communications,Ariane,1 41591U 16039A   24019.91797434 -.00000193  00000+0  00000+0 0  9991,2 41591   0.0118  17.2677 0002071 271.7356 310.7428  1.00268683 27797,1.00268683,0.0002071,GEO
41592,ECHOSTAR 18,2016,1436.12,6300.0,+,0.02,Active,1,GSO,French Guiana,USA,Commercial,Communications,Ariane,1 41592U 16039B   24020.09071587 -.00000277  00000+0  00000+0 0  9990,2 41592   0.0178  64.0273 0001612 226.0491 160.1605  1.00271285 27818,1.00271285,0.0001612,GEO
41622,MUOS-5,2016,1436.11,6804.0,+,4.24,Active,1,GSO,USA,USA,Military,Communications,Atlas,1 41622U 16041A   24020.30404475 -.00000131  00000+0  00000+0 0  9996,2 41622   4.2334 297.3619 0194495 251.1390 295.1399  1.00270905 28274,1.00270905,0.0194495,GSO
41725,TIANTONG-1 1,2016,1436.09,-1.0,+,2.47,Active,1,GSO,PRC,China,Government,Communications,Long March,1 41725U 16048A   24020.54899116 -.00000316  00000+0  00000+0 0  9998,2 41725   2.4688  24.4118 0008049 307.1927  86.8582  1.00272157 27460,1.00272157,0.0008049,GSO
41729,JCSAT-16,2016,1436.12,4500.0,+,0.02,Active,1,GSO,USA,Japan,Commercial,Communications,Falcon,1 41729U 16050A   24020.57688067 -.00000247  00000+0  00000+0 0  9992,2 41729   0.0267  59.2125 0000966   1.2117  50.6346  1.00269733 27269,1.00269733,9.66e-05,GEO
41744,USA 270,2016,1437.82,500.0,+,1.66,Active,1,GSO,USA,USA,Military,Space Science,Delta,1 41744U 16052A   24016.21021604 -.00000286  00000+0  00000+0 0  9998,2 41744   1.9215  88.5099 0000692  15.1741 181.1743  1.00427115 19270,1.00427115,6.92e-05,GSO
41745,USA 271,2016,1437.58,500.0,+,1.67,Active,1,GSO,USA,USA,Military,Space Science,Delta,1 41745U 16052B   24016.23787913  .00000076  00000+0  00000+0 0  9999,2 41745   1.8949  88.4861 0003489 206.3907 278.4568  1.00200570 19072,1.0020057,0.0003489,GSO
41748,INTELSAT 33E (IS-33E),2016,1436.08,6600.0,+,0.01,Active,1,GSO,French Guiana,INTELSAT,Commercial,Communications,Ariane,1 41748U 16053B   24020.47288590  .00000053  00000+0  00000+0 0  9996,2 41748   0.0124  76.0931 0002026 215.1808  58.2924  1.00273402 27439,1.00273402,0.0002026,GEO
41793,GSAT-18,2016,1436.11,3404.0,+,0.07,Active,1,GSO,French Guiana,India,Government,Communications,Ariane,1 41793U 16060A   24019.87896583 -.00000072  00000+0  00000+0 0  9995,2 41793   0.0738  94.6917 0002764 165.2827 249.1856  1.00271220 26727,1.0027122,0.0002764,GEO
41794,SKY MUSTER 2 (NBN1B),2016,1436.1,6405.0,+,0.01,Active,1,GSO,French Guiana,Australia,Commercial,Communications,Ariane,1 41794U 16060B   24020.57688067 -.00000240  00000+0  00000+0 0  9998,2 41794   0.0140   8.5029 0001713 284.6937 178.7115  1.00270934 26719,1.00270934,0.0001713,GEO
41836,HIMAWARI-9,2016,1436.15,3500.0,+,0.04,Active,1,GSO,Japan,Japan,Government,Earth Observation,H2A,1 41836U 16064A   24020.58406907 -.00000271  00000+0  00000+0 0  9995,2 41836   0.0293 269.4329 0000912  11.5124 189.5023  1.00273477 26398,1.00273477,9.12e-05,GEO
41838,SHIJIAN-17 (SJ-17),2016,1436.09,3800.0,+,3.5,Active,1,GSO,PRC,China,Government,Technology Development,Long March,1 41838U 16065A   24020.75066791 -.00000046  00000+0  00000+0 0  9990,2 41838   3.5071  83.1589 0003899 275.0429 198.8608  1.00272645 26425,1.00272645,0.0003899,GSO
41866,GOES 16,2016,1436.11,5192.0,+,0.08,Active,1,GSO,USA,USA,Government,Earth Observation,Atlas,1 41866U 16071A   24020.44599587 -.00000243  00000+0  00000+0 0  9997,2 41866   0.0758 251.5923 0001225  72.6635 240.3909  1.00270919 26298,1.00270919,0.0001225,GEO
41869,TIANLIAN 1-04,2016,1436.05,2200.0,+,0.07,Active,1,GSO,PRC,China,Government,Communications,Long March,1 41869U 16072A   24020.65302053  .00000035  00000+0  00000+0 0  9992,2 41869   0.0710  93.1548 0024139  60.1107  18.1998  1.00268226 26508,1.00268226,0.0024139,GEO
41879,WGS F8 (USA 272),2016,1436.12,5990.0,+,0.01,Active,1,GSO,USA,USA,Military,Communications,Delta,1 41879U 16075A   24020.62542703 -.00000199  00000+0  00000+0 0  9993,2 41879   0.0097  67.6900 0000443 242.0076 184.7413  1.00270600 26010,1.002706,4.43e-05,GEO
41882,FENGYUN 4A,2016,1436.08,5300.0,+,0.08,Active,1,GSO,PRC,China,Government,Earth Observation,Long March,1 41882U 16077A   24020.51907244 -.00000326  00000+0  00000+0 0  9994,2 41882   0.0852  63.4851 0005087 340.8932   6.4360  1.00272576 26115,1.00272576,0.0005087,GEO
41893,ECHOSTAR 19,2016,1436.11,6764.0,+,0.01,Active,1,GSO,USA,USA,Commercial,Communications,Atlas,1 41893U 16079A   24020.30928808 -.00000134  00000+0  00000+0 0  9991,2 41893   0.0134  76.8799 0001593 223.0850 193.4422  1.00270907 25906,1.00270907,0.0001593,GEO
41903,JCSAT-110A (JCSAT-15),2016,1436.12,3400.0,+,0.02,Active,1,GSO,French Guiana,Japan,Commercial,Communications,Ariane,1 41903U 16082A   24019.05021941 -.00000346  00000+0  00000+0 0  9994,2 41903   0.0188  53.5950 0001498 234.3029 318.1680  1.00270284 25938,1.00270284,0.0001498,GEO
41904,STAR ONE D1,2016,1436.09,6433.0,+,0.02,Active,1,GSO,French Guiana,Brazil,Commercial,Communications,Ariane,1 41904U 16082B   24020.31676865 -.00000206  00000+0  00000+0 0  9992,2 41904   0.0135 301.6031 0002134   1.5285 206.0959  1.00271979 25963,1.00271979,0.0002134,GEO
41911,TJS-2,2017,1436.12,-1.0,+,0.19,Active,1,GSO,PRC,China,Government,Technology Development,Long March,1 41911U 17001A   24020.47419125 -.00000001  00000+0  00000+0 0  9996,2 41911   0.1935  77.6241 0003517 225.3099  53.5557  1.00270356 25910,1.00270356,0.0003517,GEO
41937,SBIRS GEO-4 (USA 273),2017,1436.11,4500.0,+,1.48,Active,1,GSO,USA,USA,Military,Earth Observation,Atlas,1 41937U 17004A   24020.61828660 -.00000137  00000+0  00000+0 0  9991,2 41937   1.4825 346.3620 0002657 308.0389 310.8449  1.00271137 25795,1.00271137,0.0002657,GSO
41942,HISPASAT 36W-1,2017,1436.09,3220.0,+,0.01,Active,1,GSO,French Guiana,Spain,Commercial,Communications,Soyuz,1 41942U 17006A   24020.23896869 -.00000240  00000+0  00000+0 0  9998,2 41942   0.0124 309.0971 0000922 353.4977 226.5361  1.00269724 25417,1.00269724,9.22e-05,GEO
41944,TELKOM 3S,2017,1436.14,3550.0,+,0.02,Active,1,GSO,French Guiana,Indonesia,Commercial,Communications,Ariane,1 41944U 17007A   24020.54841043 -.00000359  00000+0  00000+0 0  9990,2 41944   0.0254  49.1197 0002648 245.9026 139.8254  1.00270403 25325,1.00270403,0.0002648,GEO
41945,INTELSAT 32E (IS-32E),2017,1436.03,6000.0,+,0.01,Active,1,GSO,French Guiana,INTELSAT,Commercial,Communications,Ariane,1 41945U 17007B   24020.23748931 -.00000264  00000+0  00000+0 0  9994,2 41945   0.0163  71.9859 0000486 146.0700 303.3544  1.00274942 25413,1.00274942,4.86e-05,GEO
42070,ECHOSTAR 23,2017,1436.12,5600.0,+,0.02,Active,1,GSO,USA,USA,Commercial,Communications,Falcon,1 42070U 17014A   24020.30255102 -.00000052  00000+0  00000+0 0  9998,2 42070   0.0166  68.1350 0002191 230.2916 179.7327  1.00269252 25119,1.00269252,0.0002191,GEO
42432,SES-10,2017,1436.14,5271.0,+,0.02,Active,1,GSO,USA,SES,Commercial,Communications,Falcon,1 42432U 17017A   24020.15871348 -.00000268  00000+0  00000+0 0  9991,2 42432   0.0109  46.9920 0003091 242.2750 179.9929  1.00278604 24934,1.00278604,0.0003091,GEO
42662,CHINASAT 16 (SJ-13),2017,1436.07,4600.0,+,0.06,Active,1,GSO,PRC,China,Government,Technology Development,Long March,1 42662U 17018A   24019.83843556 -.00000348  00000+0  00000+0 0  9999,2 42662   0.0566  89.9897 0005995 197.7974 243.2663  1.00273926 24924,1.00273926,0.0005995,GEO
